[{"OBJECT_NAME":"ION SCV-015","OBJECT_ID":"2023-185H","EPOCH":"2026-03-09T22:36:51.209568","MEAN_MOTION":15.3163624,"ECCENTRICITY":0.00109059,"INCLINATION":97.5772,"RA_OF_ASC_NODE":155.3582,"ARG_OF_PERICENTER":92.3805,"MEAN_ANOMALY":267.8685,"EPHEMERIS_TYPE":0,"CLASSIFICATION_TYPE":"U","NORAD_CAT_ID":58469,"ELEMENT_SET_NO":999,"REV_AT_EPOCH":12588,"BSTAR":0.00030895808,"MEAN_MOTION_DOT":9.376e-5,"MEAN_MOTION_DDOT":0},{"OBJECT_NAME":"STARLINK-32577","OBJECT_ID":"2024-216N","EPOCH":"2026-03-09T22:49:36.788736","MEAN_MOTION":15.27579015,"ECCENTRICITY":0.00020997,"INCLINATION":43.0014,"RA_OF_ASC_NODE":261.9382,"ARG_OF_PERICENTER":264.7275,"MEAN_ANOMALY":95.3337,"EPHEMERIS_TYPE":0,"CLASSIFICATION_TYPE":"U","NORAD_CAT_ID":62044,"ELEMENT_SET_NO":999,"REV_AT_EPOCH":7384,"BSTAR":0.00083935522,"MEAN_MOTION_DOT":0.00022907,"MEAN_MOTION_DDOT":0}]
